start=new Date('2022-05-11T00:00:00.000Z').valueOf();
sats=[{"ARG_OF_PERICENTER":"53.5382","GP_ID":"203228063","REF_FRAME":"TEME","EPOCH":"2022-05-10T20:30:34.549056","MEAN_MOTION":"15.06394963","FILE":"3439673","CLASSIFICATION_TYPE":"U","OBJECT_ID":"2021-012C","OBJECT_TYPE":"PAYLOAD","MEAN_ELEMENT_THEORY":"SGP4","MEAN_MOTION_DOT":"0.00001480","CENTER_NAME":"EARTH","INCLINATION":"53.0546","LAUNCH_DATE":"2021-02-16","OBJECT_NAME":"STARLINK-1645","RA_OF_ASC_NODE":"231.2225","REV_AT_EPOCH":"6914","EPHEMERIS_TYPE":"0","ECCENTRICITY":"0.00016620","BSTAR":"0.00011824000000","PERIAPSIS":"546.078","MEAN_MOTION_DDOT":"0.0000000000000","RCS_SIZE":"LARGE","TIME_SYSTEM":"UTC","TLE_LINE2":"2 47622  53.0546 231.2225 0001662  53.5382 306.5759 15.06394963 69145","COUNTRY_CODE":"US","SITE":"AFETR","DECAY_DATE":null,"TLE_LINE1":"1 47622U 21012C   22130.85456654  .00001480  00000-0  11824-3 0  9990","SEMIMAJOR_AXIS":"6925.364","PERIOD":"95.592","NORAD_CAT_ID":"47622","MEAN_ANOMALY":"306.5759","ELEMENT_SET_NO":"999","APOAPSIS":"548.380"},{"MEAN_MOTION_DDOT":"0.0000000000000","PERIAPSIS":"545.938","RCS_SIZE":"LARGE","TLE_LINE2":"2 47623  53.0555 166.4852 0001894  46.9146 313.2002 15.06388345 70057","TIME_SYSTEM":"UTC","COUNTRY_CODE":"US","SITE":"AFETR","TLE_LINE1":"1 47623U 21012D   22130.80069202  .00000346  00000-0  42114-4 0  9992","SEMIMAJOR_AXIS":"6925.384","NORAD_CAT_ID":"47623","PERIOD":"95.593","DECAY_DATE":null,"MEAN_ANOMALY":"313.2002","APOAPSIS":"548.561","ELEMENT_SET_NO":"999","ARG_OF_PERICENTER":"46.9146","MEAN_MOTION":"15.06388345","EPOCH":"2022-05-10T19:12:59.790528","FILE":"3439673","GP_ID":"203226812","REF_FRAME":"TEME","MEAN_MOTION_DOT":"0.00000346","CLASSIFICATION_TYPE":"U","OBJECT_TYPE":"PAYLOAD","MEAN_ELEMENT_THEORY":"SGP4","OBJECT_ID":"2021-012D","CENTER_NAME":"EARTH","INCLINATION":"53.0555","REV_AT_EPOCH":"7005","EPHEMERIS_TYPE":"0","RA_OF_ASC_NODE":"166.4852","LAUNCH_DATE":"2021-02-16","OBJECT_NAME":"STARLINK-1655","ECCENTRICITY":"0.00018940","BSTAR":"0.00004211400000"},{"FILE":"3439673","EPOCH":"2022-05-10T14:17:44.019168","MEAN_MOTION":"15.06398317","REF_FRAME":"TEME","GP_ID":"203227062","ARG_OF_PERICENTER":"52.3137","CENTER_NAME":"EARTH","MEAN_MOTION_DOT":"0.00001534","OBJECT_ID":"2021-012E","OBJECT_TYPE":"PAYLOAD","MEAN_ELEMENT_THEORY":"SGP4","CLASSIFICATION_TYPE":"U","EPHEMERIS_TYPE":"0","REV_AT_EPOCH":"6940","OBJECT_NAME":"STARLINK-1669","LAUNCH_DATE":"2021-02-16","RA_OF_ASC_NODE":"212.4073","INCLINATION":"53.0560","BSTAR":"0.00012186000000","ECCENTRICITY":"0.00015810","RCS_SIZE":"LARGE","PERIAPSIS":"546.124","MEAN_MOTION_DDOT":"0.0000000000000","SITE":"AFETR","COUNTRY_CODE":"US","TLE_LINE2":"2 47624  53.0560 212.4073 0001581  52.3137 307.7995 15.06398317 69401","TIME_SYSTEM":"UTC","PERIOD":"95.592","NORAD_CAT_ID":"47624","TLE_LINE1":"1 47624U 21012E   22130.59564837  .00001534  00000-0  12186-3 0  9998","SEMIMAJOR_AXIS":"6925.354","DECAY_DATE":null,"APOAPSIS":"548.314","ELEMENT_SET_NO":"999","MEAN_ANOMALY":"307.7995"},{"TIME_SYSTEM":"UTC","TLE_LINE2":"2 47625  53.0537 232.3923 0001582  78.8465 281.2702 15.06402326 69104","COUNTRY_CODE":"US","SITE":"AFETR","MEAN_MOTION_DDOT":"0.0000000000000","PERIAPSIS":"546.111","RCS_SIZE":"LARGE","MEAN_ANOMALY":"281.2702","APOAPSIS":"548.302","ELEMENT_SET_NO":"999","TLE_LINE1":"1 47625U 21012F   22130.59748924  .00000070  00000-0  23600-4 0  9998","SEMIMAJOR_AXIS":"6925.341","NORAD_CAT_ID":"47625","PERIOD":"95.592","DECAY_DATE":null,"MEAN_MOTION_DOT":"0.00000070","CLASSIFICATION_TYPE":"U","OBJECT_TYPE":"PAYLOAD","MEAN_ELEMENT_THEORY":"SGP4","OBJECT_ID":"2021-012F","CENTER_NAME":"EARTH","ARG_OF_PERICENTER":"78.8465","MEAN_MOTION":"15.06402326","EPOCH":"2022-05-10T14:20:23.070336","FILE":"3439673","GP_ID":"203227814","REF_FRAME":"TEME","ECCENTRICITY":"0.00015820","BSTAR":"0.00002360000000","INCLINATION":"53.0537","REV_AT_EPOCH":"6910","EPHEMERIS_TYPE":"0","LAUNCH_DATE":"2021-02-16","OBJECT_NAME":"STARLINK-1704","RA_OF_ASC_NODE":"232.3923"},{"TIME_SYSTEM":"UTC","TLE_LINE2":"2 47626  53.0553 232.1669 0001611  50.3484 309.7647 15.06393109 69110","COUNTRY_CODE":"US","SITE":"AFETR","PERIAPSIS":"546.119","MEAN_MOTION_DDOT":"0.0000000000000","RCS_SIZE":"LARGE","MEAN_ANOMALY":"309.7647","APOAPSIS":"548.350","ELEMENT_SET_NO":"999","SEMIMAJOR_AXIS":"6925.370","TLE_LINE1":"1 47626U 21012G   22130.64910167  .00000960  00000-0  83332-4 0  9991","PERIOD":"95.593","NORAD_CAT_ID":"47626","DECAY_DATE":null,"MEAN_MOTION_DOT":"0.00000960","CLASSIFICATION_TYPE":"U","MEAN_ELEMENT_THEORY":"SGP4","OBJECT_TYPE":"PAYLOAD","OBJECT_ID":"2021-012G","CENTER_NAME":"EARTH","ARG_OF_PERICENTER":"50.3484","EPOCH":"2022-05-10T15:34:42.384288","MEAN_MOTION":"15.06393109","FILE":"3439673","GP_ID":"203227564","REF_FRAME":"TEME","ECCENTRICITY":"0.00016110","BSTAR":"0.00008333200000","INCLINATION":"53.0553","REV_AT_EPOCH":"6911","EPHEMERIS_TYPE":"0","LAUNCH_DATE":"2021-02-16","OBJECT_NAME":"STARLINK-1761","RA_OF_ASC_NODE":"232.1669"},{"ARG_OF_PERICENTER":"40.9496","GP_ID":"203226313","REF_FRAME":"TEME","EPOCH":"2022-05-10T18:00:00.999648","MEAN_MOTION":"15.06403770","FILE":"3439673","CLASSIFICATION_TYPE":"U","MEAN_ELEMENT_THEORY":"SGP4","OBJECT_TYPE":"PAYLOAD","OBJECT_ID":"2021-012H","MEAN_MOTION_DOT":"-0.00011834","CENTER_NAME":"EARTH","INCLINATION":"53.0524","LAUNCH_DATE":"2021-02-16","OBJECT_NAME":"STARLINK-1972","RA_OF_ASC_NODE":"136.6903","REV_AT_EPOCH":"358","EPHEMERIS_TYPE":"0","ECCENTRICITY":"0.00024770","BSTAR":"-0.00077672000000","PERIAPSIS":"545.487","MEAN_MOTION_DDOT":"0.0000000000000","RCS_SIZE":"LARGE","TIME_SYSTEM":"UTC","TLE_LINE2":"2 47627  53.0524 136.6903 0002477  40.9496  89.1984 15.06403770  3585","COUNTRY_CODE":"US","SITE":"AFETR","DECAY_DATE":null,"TLE_LINE1":"1 47627U 21012H   22130.75001157 -.00011834  00000-0 -77672-3 0  9997","SEMIMAJOR_AXIS":"6925.337","PERIOD":"95.592","NORAD_CAT_ID":"47627","MEAN_ANOMALY":"89.1984","ELEMENT_SET_NO":"999","APOAPSIS":"548.917"},{"BSTAR":"-0.00001027700000","ECCENTRICITY":"0.00014800","LAUNCH_DATE":"2021-02-16","OBJECT_NAME":"STARLINK-1973","RA_OF_ASC_NODE":"232.2923","EPHEMERIS_TYPE":"0","REV_AT_EPOCH":"6911","INCLINATION":"53.0533","CENTER_NAME":"EARTH","OBJECT_TYPE":"PAYLOAD","MEAN_ELEMENT_THEORY":"SGP4","OBJECT_ID":"2021-012J","CLASSIFICATION_TYPE":"U","MEAN_MOTION_DOT":"-0.00000435","REF_FRAME":"TEME","GP_ID":"203226563","FILE":"3439673","MEAN_MOTION":"15.06396317","EPOCH":"2022-05-10T14:52:14.291040","ARG_OF_PERICENTER":"50.9751","APOAPSIS":"548.250","ELEMENT_SET_NO":"999","MEAN_ANOMALY":"309.1370","DECAY_DATE":null,"PERIOD":"95.592","NORAD_CAT_ID":"47628","TLE_LINE1":"1 47628U 21012J   22130.61960985 -.00000435  00000-0 -10277-4 0  9990","SEMIMAJOR_AXIS":"6925.360","SITE":"AFETR","COUNTRY_CODE":"US","TIME_SYSTEM":"UTC","TLE_LINE2":"2 47628  53.0533 232.2923 0001480  50.9751 309.1370 15.06396317 69112","RCS_SIZE":"LARGE","PERIAPSIS":"546.200","MEAN_MOTION_DDOT":"0.0000000000000"},{"COUNTRY_CODE":"US","SITE":"AFETR","TIME_SYSTEM":"UTC","TLE_LINE2":"2 47629  53.0538 111.7006 0001778  54.1920  33.4920 15.06384091  3588","RCS_SIZE":"LARGE","PERIAPSIS":"546.031","MEAN_MOTION_DDOT":"0.0000000000000","APOAPSIS":"548.494","ELEMENT_SET_NO":"999","MEAN_ANOMALY":"33.4920","TLE_LINE1":"1 47629U 21012K   22130.75001157  .00027031  00000-0  18274-2 0  9995","SEMIMAJOR_AXIS":"6925.397","NORAD_CAT_ID":"47629","PERIOD":"95.593","DECAY_DATE":null,"CENTER_NAME":"EARTH","MEAN_MOTION_DOT":"0.00027031","CLASSIFICATION_TYPE":"U","OBJECT_ID":"2021-012K","OBJECT_TYPE":"PAYLOAD","MEAN_ELEMENT_THEORY":"SGP4","MEAN_MOTION":"15.06384091","EPOCH":"2022-05-10T18:00:00.999648","FILE":"3439673","GP_ID":"203227315","REF_FRAME":"TEME","ARG_OF_PERICENTER":"54.1920","BSTAR":"0.00182740000000","ECCENTRICITY":"0.00017780","REV_AT_EPOCH":"358","EPHEMERIS_TYPE":"0","OBJECT_NAME":"STARLINK-1974","LAUNCH_DATE":"2021-02-16","RA_OF_ASC_NODE":"111.7006","INCLINATION":"53.0538"},{"COUNTRY_CODE":"US","SITE":"AFETR","TIME_SYSTEM":"UTC","TLE_LINE2":"2 47630  53.0555 212.3113 0002072  48.5627 311.5540 15.06407036 69377","RCS_SIZE":"LARGE","PERIAPSIS":"545.757","MEAN_MOTION_DDOT":"0.0000000000000","APOAPSIS":"548.627","ELEMENT_SET_NO":"999","MEAN_ANOMALY":"311.5540","SEMIMAJOR_AXIS":"6925.327","TLE_LINE1":"1 47630U 21012L   22130.61682520 -.00000901  00000-0 -41555-4 0  9990","PERIOD":"95.592","NORAD_CAT_ID":"47630","DECAY_DATE":null,"CENTER_NAME":"EARTH","MEAN_MOTION_DOT":"-0.00000901","CLASSIFICATION_TYPE":"U","MEAN_ELEMENT_THEORY":"SGP4","OBJECT_TYPE":"PAYLOAD","OBJECT_ID":"2021-012L","EPOCH":"2022-05-10T14:48:13.697280","MEAN_MOTION":"15.06407036","FILE":"3439673","GP_ID":"203228064","REF_FRAME":"TEME","ARG_OF_PERICENTER":"48.5627","BSTAR":"-0.00004155500000","ECCENTRICITY":"0.00020720","REV_AT_EPOCH":"6937","EPHEMERIS_TYPE":"0","LAUNCH_DATE":"2021-02-16","RA_OF_ASC_NODE":"212.3113","OBJECT_NAME":"STARLINK-1983","INCLINATION":"53.0555"},{"ECCENTRICITY":"0.00020160","BSTAR":"-0.00127160000000","INCLINATION":"53.0537","REV_AT_EPOCH":"358","EPHEMERIS_TYPE":"0","RA_OF_ASC_NODE":"136.7097","LAUNCH_DATE":"2021-02-16","OBJECT_NAME":"STARLINK-1992","MEAN_MOTION_DOT":"-0.00019181","CLASSIFICATION_TYPE":"U","OBJECT_ID":"2021-012N","OBJECT_TYPE":"PAYLOAD","MEAN_ELEMENT_THEORY":"SGP4","CENTER_NAME":"EARTH","ARG_OF_PERICENTER":"49.4874","EPOCH":"2022-05-10T18:00:00.999648","MEAN_MOTION":"15.06417367","FILE":"3439673","GP_ID":"203226813","REF_FRAME":"TEME","MEAN_ANOMALY":"305.8118","APOAPSIS":"548.556","ELEMENT_SET_NO":"999","TLE_LINE1":"1 47632U 21012N   22130.75001157 -.00019181  00000-0 -12716-2 0  9993","SEMIMAJOR_AXIS":"6925.295","PERIOD":"95.591","NORAD_CAT_ID":"47632","DECAY_DATE":null,"TLE_LINE2":"2 47632  53.0537 136.7097 0002016  49.4874 305.8118 15.06417367  3587","TIME_SYSTEM":"UTC","COUNTRY_CODE":"US","SITE":"AFETR","MEAN_MOTION_DDOT":"0.0000000000000","PERIAPSIS":"545.764","RCS_SIZE":"LARGE"}];
